1 44966U 20001BE  23164.84278659  .00024208  00000-0  12898-2 0  9993
2 44966  53.0519 110.3843 0002239  39.7484 320.3672 15.15090631189771
1 44966U 20001BE  23165.10664856  .00024545  00000-0  13070-2 0  9998
2 44966  53.0518 109.1839 0002280  39.6143 320.5016 15.15103803189813
1 44966U 20001BE  23165.23857857  .00024584  00000-0  13088-2 0  9999
2 44966  53.0519 108.5837 0002307  39.7037 320.4124 15.15111215189835
1 44966U 20001BE  23166.09611011  .00023571  00000-0  12542-2 0  9993
2 44966  53.0522 104.6817 0002336  41.7745 318.3426 15.15153673189964
1 44966U 20001BE  23167.08553605  .00032039  00000-0  16940-2 0  9992
2 44966  53.0528 100.1793 0002349  43.5261 316.5917 15.15216064190119
1 44966U 20001BE  23167.54724987  .00042331  00000-0  22268-2 0  9992
2 44966  53.0529  98.0779 0002347  45.9215 314.1971 15.15263351190184
1 44966U 20001BE  23167.54724987  .00042331  00000-0  22268-2 0  9992
2 44966  53.0529  98.0779 0002347  45.9215 314.1971 15.15263351190184
1 44966U 20001BE  23167.81108124  .00039694  00000-0  20886-2 0  9993
2 44966  53.0528  96.8769 0002367  47.1949 312.9242 15.15284715190227
1 44966U 20001BE  23168.07490880  .00036224  00000-0  19073-2 0  9997
2 44966  53.0532  95.6763 0002370  47.4130 312.7062 15.15303831190265
1 44966U 20001BE  23168.07490880  .00036224  00000-0  19073-2 0  9997
2 44966  53.0532  95.6763 0002370  47.4130 312.7062 15.15303831190265
1 44966U 20001BE  23168.80041746  .00031262  00000-0  16470-2 0  9996
2 44966  53.0537  92.3743 0002355  49.2407 310.8790 15.15354514190375
1 44966U 20001BE  23169.19613989  .00032613  00000-0  17159-2 0  9999
2 44966  53.0540  90.5734 0002356  49.6441 310.4757 15.15381248190432
1 44966U 20001BE  23169.19613989  .00032613  00000-0  17159-2 0  9999
2 44966  53.0540  90.5734 0002356  49.6441 310.4757 15.15381248190432
1 44966U 20001BE  23170.18541508  .00034242  00000-0  17969-2 0  9996
2 44966  53.0545  86.0705 0002332  51.9246 308.1957 15.15449259190587
1 44966U 20001BE  23170.58111245  .00033383  00000-0  17511-2 0  9999
2 44966  53.0544  84.2693 0002300  53.0960 307.0243 15.15476684190648
1 44966U 20001BE  23170.58111245  .00033383  00000-0  17511-2 0  9999
2 44966  53.0544  84.2693 0002300  53.0960 307.0243 15.15476684190648
1 44966U 20001BE  23171.43843004  .00035986  00000-0  18822-2 0  9996
2 44966  53.0545  80.3665 0002231  55.4514 304.6690 15.15542548190775
1 44966U 20001BE  23171.76815789  .00035556  00000-0  18587-2 0  9992
2 44966  53.0544  78.8652 0002190  56.4565 303.6637 15.15567349190825
1 44966U 20001BE  23171.83410253  .00037056  00000-0  19357-2 0  9990
2 44966  53.0545  78.5650 0002175  56.7907 303.3294 15.15573903190837
1 44966U 20001BE  23172.42759633  .00036570  00000-0  19082-2 0  9999
2 44966  53.0544  75.8629 0002117  58.2873 301.8326 15.15619268190921
1 44966U 20001BE  23173.02107321  .00034055  00000-0  17766-2 0  9990
2 44966  53.0541  73.1604 0002074  59.5939 300.5259 15.15660401191018
1 44966U 20001BE  23174.01016215  .00039955  00000-0  20753-2 0  9995
2 44966  53.0537  68.6561 0001987  62.2693 297.8501 15.15739201191163
1 44966U 20001BE  23175.46073154  .00042309  00000-0  21885-2 0  9994
2 44966  53.0532  62.0490 0001843  67.5556 292.5632 15.15858891191382
1 44966U 20001BE  23176.97711382  .00038339  00000-0  19788-2 0  9990
2 44966  53.0523  55.1406 0001727  72.5275 287.5906 15.15981814191613
1 44966U 20001BE  23178.88891085  .00030849  00000-0  15911-2 0  9993
2 44966  53.0523  46.4290 0001647  72.1099 288.0073 15.16112018191904
1 44966U 20001BE  23180.00954775  .00027937  00000-0  14403-2 0  9995
2 44966  53.0526  41.3215 0001628  70.9867 289.1303 15.16178395192073
1 44966U 20001BE  23182.31659417  .00022482  00000-0  11588-2 0  9997
2 44966  53.0535  30.8067 0001635  68.1690 291.9477 15.16306245192421
1 44966U 20001BE  23183.96437056  .00026564  00000-0  13623-2 0  9999
2 44966  53.0540  23.2949 0001642  65.3433 294.7731 15.16391215192676
1 44966U 20001BE  23185.67795791  .00027294  00000-0  13955-2 0  9991
2 44966  53.0547  15.4815 0001593  64.4365 295.6792 15.16482801192935
1 44966U 20001BE  23186.93013012  .00027019  00000-0  13791-2 0  9993
2 44966  53.0554   9.7718 0001563  62.3629 297.7522 15.16547497193127
1 44966U 20001BE  23188.18224819  .00030312  00000-0  15415-2 0  9996
2 44966  53.0560   4.0613 0001474  60.2430 299.8710 15.16618405193315
1 44966U 20001BE  23189.43430222  .00033075  00000-0  16760-2 0  9995
2 44966  53.0557 358.3514 0001378  59.8827 300.2303 15.16700598193504
1 44966U 20001BE  23190.42272176  .00028121  00000-0  14261-2 0  9998
2 44966  53.0554 353.8429 0001322  58.4701 301.6422 15.16754416193652
1 44966U 20001BE  23191.47699476  .00026620  00000-0  13488-2 0  9992
2 44966  53.0549 349.0341 0001273  57.0663 303.0453 15.16813718193812
1 44966U 20001BE  23192.72888980  .00032738  00000-0  16502-2 0  9998
2 44966  53.0541 343.3233 0001281  54.5399 305.5714 15.16890228194008
1 44966U 20001BE  23194.70542289  .00032424  00000-0  16282-2 0  9994
2 44966  53.0531 334.3034 0001290  50.2192 309.8915 15.17027691194300
1 44966U 20001BE  23195.69362077  .00042616  00000-0  21273-2 0  9998
2 44966  53.0530 329.7938 0001382  45.3475 314.7631 15.17107176194454
1 44966U 20001BE  23197.34049853  .00033639  00000-0  16783-2 0  9991
2 44966  53.0531 322.2773 0001618  39.0867 321.0243 15.17236925194700
1 44966U 20001BE  23198.59203387  .00043331  00000-0  21482-2 0  9995
2 44966  53.0529 316.5631 0001756  34.9136 325.1973 15.17338836194891
1 44966U 20001BE  23199.31656428  .00051454  00000-0  25397-2 0  9998
2 44966  53.0530 313.2548 0001887  33.8839 326.2275 15.17414029195007
1 44966U 20001BE  23199.58002159  .00044502  00000-0  21995-2 0  9999
2 44966  53.0532 312.0520 0001955  32.9886 327.1230 15.17433826195045
1 44966U 20001BE  23200.63381106  .00035821  00000-0  17713-2 0  9997
2 44966  53.0535 307.2397 0001980  32.6726 327.4390 15.17518589195202
1 44966U 20001BE  23202.41195731  .00040333  00000-0  19834-2 0  9992
2 44966  53.0538 299.1181 0002192  31.8215 328.2911 15.17655634195475
1 44966U 20001BE  23205.24348617  .00034846  00000-0  17065-2 0  9995
2 44966  53.0550 286.1819 0002512  36.4208 323.6956 15.17869113195907
1 44966U 20001BE  23206.49450890  .00029187  00000-0  14298-2 0  9997
2 44966  53.0546 280.4648 0002715  31.6850 328.4307 15.17945813196090
1 44966U 20001BE  23207.28459646  .00033875  00000-0  16535-2 0  9998
2 44966  53.0545 276.8537 0002746  32.3492 327.7670 15.17996802196212
1 44966U 20001BE  23207.61379140  .00038459  00000-0  18726-2 0  9992
2 44966  53.0547 275.3505 0002933  30.3062 329.8101 15.18022431196268
1 44966U 20001BE  23207.87714345  .00034991  00000-0  17051-2 0  9997
2 44966  53.0548 274.1463 0002944  31.3353 328.7816 15.18039500196306
1 44966U 20001BE  23208.66718174  .00026601  00000-0  12997-2 0  9992
2 44966  53.0546 270.5350 0002978  32.2854 327.8322 15.18085281196424
1 44966U 20001BE  23208.86468792  .00025148  00000-0  12295-2 0  9998
2 44966  53.0546 269.6322 0002968  32.4250 327.6926 15.18094678196454
1 44966U 20001BE  23209.32553111  .00021101  00000-0  10341-2 0  9995
2 44966  53.0544 267.5256 0002951  32.7929 327.3248 15.18113954196524
1 44966U 20001BE  23209.32553111  .00021101  00000-0  10341-2 0  9995
2 44966  53.0544 267.5256 0002951  32.7929 327.3248 15.18113954196524
1 44966U 20001BE  23210.37886465  .00023103  00000-0  11289-2 0  9999
2 44966  53.0544 262.7111 0002975  34.9995 325.1195 15.18162084196686
1 44966U 20001BE  23211.49799634  .00021268  00000-0  10393-2 0  9999
2 44966  53.0536 257.5955 0003017  36.8790 323.2411 15.18209375196851
1 44966U 20001BE  23212.55126525  .00018930  00000-0  92592-3 0  9994
2 44966  53.0527 252.7808 0003054  38.7193 321.4020 15.18250930197012
1 44966U 20001BE  23213.93363961  .00017739  00000-0  86755-3 0  9994
2 44966  53.0517 246.4596 0003050  42.6807 317.4424 15.18299552197226
1 44966U 20001BE  23214.46024877  .00014961  00000-0  73410-3 0  9991
2 44966  53.0513 244.0517 0003066  43.8560 316.2677 15.18312089197302
1 44966U 20001BE  23215.57927471  .00013145  00000-0  64644-3 0  9998
2 44966  53.0505 238.9340 0003087  46.9695 313.1557 15.18343327197475
1 44966U 20001BE  23216.56663481  .00010479  00000-0  51830-3 0  9996
2 44966  53.0503 234.4186 0003128  49.4409 310.6857 15.18363181197621
1 44966U 20001BE  23218.14638100  .00010283  00000-0  50837-3 0  9991
2 44966  53.0505 227.1943 0003308  52.3076 307.8218 15.18399857197860
1 44966U 20001BE  23219.39698724  .00009644  00000-0  47744-3 0  9999
2 44966  53.0505 221.4748 0003371  54.9701 305.1609 15.18425214198057
1 44966U 20001BE  23220.71338988  .00013557  00000-0  66392-3 0  9998
2 44966  53.0504 215.4532 0003448  57.4481 302.6846 15.18459842198259
1 44966U 20001BE  23222.35884454  .00016576  00000-0  80678-3 0  9991
2 44966  53.0499 207.9266 0003538  61.3905 298.7445 15.18514204198509
1 44966U 20001BE  23223.67516023  .00019687  00000-0  95348-3 0  9997
2 44966  53.0493 201.9056 0003641  64.0678 296.0691 15.18568720198704
1 44966U 20001BE  23224.66236336  .00022968  00000-0  11078-2 0  9996
2 44966  53.0504 197.3899 0003675  65.1137 295.0239 15.18616985198859
1 44966U 20001BE  23226.11020389  .00025147  00000-0  12085-2 0  9998
2 44966  53.0516 190.7663 0003723  68.9801 291.1591 15.18690993199075
1 44966U 20001BE  23227.16313244  .00028741  00000-0  13760-2 0  9993
2 44966  53.0529 185.9489 0003764  71.5224 288.6180 15.18750752199238
1 44966U 20001BE  23228.28181976  .00031436  00000-0  14998-2 0  9991
2 44966  53.0545 180.8296 0003693  73.7642 286.3758 15.18825954199407
1 44966U 20001BE  23229.26884775  .00040521  00000-0  19222-2 0  9997
2 44966  53.0557 176.3123 0003855  78.7905 281.3523 15.18903199199555
1 44966U 20001BE  23231.11115668  .00041899  00000-0  19778-2 0  9997
2 44966  53.0553 167.8810 0003651  84.1132 276.0279 15.19058952199835
1 44966U 20001BE  23232.22960757  .00044809  00000-0  21073-2 0  9992
2 44966  53.0554 162.7612 0003575  88.7169 271.4235 15.19156879200005
